{"type": "FeatureCollection", "features": [ {"type": "Feature", "properties": {"norad_id": 30941, "name": "FENGYUN 1C DEB", "group": "fengyun-1c-debris", "lat": 80.50453538706367, "lon": 98.06505447054316, "alt_km": 803.998507317865, "timestamp": "2025-12-23T09:49:07.362939+00:00", "meta": {"OBJECT_NAME": "FENGYUN 1C DEB", "OBJECT_ID": "1999-025BAF", "EPOCH": "2025-12-22T13:14:37.382784", "MEAN_MOTION": 14.31127061, "ECCENTRICITY": 0.00335429, "INCLINATION": 98.5449, "RA_OF_ASC_NODE": 213.2099, "ARG_OF_PERICENTER": 288.9005, "MEAN_ANOMALY": 70.8542, "EPHEMERIS_TYPE": 0, "CLASSIFICATION_TYPE": "U", "NORAD_CAT_ID": 30941, "ELEMENT_SET_NO": 999, "REV_AT_EPOCH": 96766, "BSTAR": 0.0019229309, "MEAN_MOTION_DOT": 5.062e-05, "MEAN_MOTION_DDOT": 0}, "tle": {"line1": "1 30941U 99025BAF 25356.55182156  .00005062  00000+0  19229-2 0  9993", "line2": "2 30941  98.5449 213.2099 0033542 288.9005  70.8542 14.31127061967669"}}, "geometry": {"type": "Point", "coordinates": [98.06505447054316, 80.50453538706367]}}, {"type": "Feature", "properties": {"norad_id": 30942, "name": "FENGYUN 1C DEB", "group": "fengyun-1c-debris", "lat": -19.646936929958656, "lon": 172.23375039159984, "alt_km": 902.4336097428059, "timestamp": "2025-12-23T09:49:07.362950+00:00", "meta": {"OBJECT_NAME": "FENGYUN 1C DEB", "OBJECT_ID": "1999-025BAG", "EPOCH": "2025-12-20T23:26:39.005376", "MEAN_MOTION": 14.14845672, "ECCENTRICITY": 0.01380308, "INCLINATION": 98.6797, "RA_OF_ASC_NODE": 352.9939, "ARG_OF_PERICENTER": 82.907, "MEAN_ANOMALY": 333.8433, "EPHEMERIS_TYPE": 0, "CLASSIFICATION_TYPE": "U", "NORAD_CAT_ID": 30942, "ELEMENT_SET_NO": 999, "REV_AT_EPOCH": 96761, "BSTAR": 0.00019184496, "MEAN_MOTION_DOT": 3.64e-06, "MEAN_MOTION_DDOT": 0}, "tle": {"line1": "1 30942U 99025BAG 25354.97684034  .00000364  00000+0  19184-3 0  9991", "line2": "2 30942  98.6797 352.9939 0138030  82.9070 333.8433 14.14845672967615"}}, "geometry": {"type": "Point", "coordinates": [172.23375039159984, -19.646936929958656]}}, {"type": "Feature", "properties": {"norad_id": 30943, "name": "FENGYUN 1C DEB", "group": "fengyun-1c-debris", "lat": 39.03529335708402, "lon": -161.789049122088, "alt_km": 884.0402029541619, "timestamp": "2025-12-23T09:49:07.362960+00:00", "meta": {"OBJECT_NAME": "FENGYUN 1C DEB", "OBJECT_ID": "1999-025BAH", "EPOCH": "2025-12-20T07:38:18.723264", "MEAN_MOTION": 14.04497018, "ECCENTRICITY": 0.00507, "INCLINATION": 98.7975, "RA_OF_ASC_NODE": 8.0033, "ARG_OF_PERICENTER": 44.8439, "MEAN_ANOMALY": 315.6809, "EPHEMERIS_TYPE": 0, "CLASSIFICATION_TYPE": "U", "NORAD_CAT_ID": 30943, "ELEMENT_SET_NO": 999, "REV_AT_EPOCH": 95848, "BSTAR": 0.00028856793, "MEAN_MOTION_DOT": 4.23e-06, "MEAN_MOTION_DDOT": 0}, "tle": {"line1": "1 30943U 99025BAH 25354.31827226  .00000423  00000+0  28857-3 0  9995", "line2": "2 30943  98.7975   8.0033 0050700  44.8439 315.6809 14.04497018958488"}}, "geometry": {"type": "Point", "coordinates": [-161.789049122088, 39.03529335708402]}}, {"type": "Feature", "properties": {"norad_id": 30944, "name": "FENGYUN 1C DEB", "group": "fengyun-1c-debris", "lat": -0.6271576109575528, "lon": 53.78491122160509, "alt_km": 681.4974238423474, "timestamp": "2025-12-23T09:49:07.362971+00:00", "meta": {"OBJECT_NAME": "FENGYUN 1C DEB", "OBJECT_ID": "1999-025BAJ", "EPOCH": "2025-12-21T22:15:45.159264", "MEAN_MOTION": 14.52456444, "ECCENTRICITY": 0.01492776, "INCLINATION": 98.849, "RA_OF_ASC_NODE": 52.1254, "ARG_OF_PERICENTER": 73.0628, "MEAN_ANOMALY": 105.9233, "EPHEMERIS_TYPE": 0, "CLASSIFICATION_TYPE": "U", "NORAD_CAT_ID": 30944, "ELEMENT_SET_NO": 999, "REV_AT_EPOCH": 99209, "BSTAR": 0.00012945518, "MEAN_MOTION_DOT": 5.54e-06, "MEAN_MOTION_DDOT": 0}, "tle": {"line1": "1 30944U 99025BAJ 25355.92760601  .00000554  00000+0  12946-3 0  9994", "line2": "2 30944  98.8490  52.1254 0149277  73.0628 105.9233 14.52456444992096"}}, "geometry": {"type": "Point", "coordinates": [53.78491122160509, -0.6271576109575528]}}, {"type": "Feature", "properties": {"norad_id": 30945, "name": "FENGYUN 1C DEB", "group": "fengyun-1c-debris", "lat": -37.37406615564125, "lon": 14.162246366850205, "alt_km": 783.6097208568253, "timestamp": "2025-12-23T09:49:07.362981+00:00", "meta": {"OBJECT_NAME": "FENGYUN 1C DEB", "OBJECT_ID": "1999-025BAK", "EPOCH": "2025-12-22T00:42:16.010208", "MEAN_MOTION": 14.29785924, "ECCENTRICITY": 0.00303541, "INCLINATION": 99.389, "RA_OF_ASC_NODE": 5.4152, "ARG_OF_PERICENTER": 12.2261, "MEAN_ANOMALY": 52.1318, "EPHEMERIS_TYPE": 0, "CLASSIFICATION_TYPE": "U", "NORAD_CAT_ID": 30945, "ELEMENT_SET_NO": 999, "REV_AT_EPOCH": 96570, "BSTAR": 0.0016076672, "MEAN_MOTION_DOT": 4.102e-05, "MEAN_MOTION_DDOT": 0}, "tle": {"line1": "1 30945U 99025BAK 25356.02935197  .00004102  00000+0  16077-2 0  9992", "line2": "2 30945  99.3890   5.4152 0030354  12.2261  52.1318 14.29785924965705"}}, "geometry": {"type": "Point", "coordinates": [14.162246366850205, -37.37406615564125]}}, {"type": "Feature", "properties": {"norad_id": 30946, "name": "FENGYUN 1C DEB", "group": "fengyun-1c-debris", "lat": -79.4021801644581, "lon": -124.96679765365973, "alt_km": 752.8789838975226, "timestamp": "2025-12-23T09:49:07.362993+00:00", "meta": {"OBJECT_NAME": "FENGYUN 1C DEB", "OBJECT_ID": "1999-025BAL", "EPOCH": "2025-12-21T06:59:53.242944", "MEAN_MOTION": 14.48192935, "ECCENTRICITY": 0.00895927, "INCLINATION": 99.0397, "RA_OF_ASC_NODE": 111.0737, "ARG_OF_PERICENTER": 167.5285, "MEAN_ANOMALY": 222.4987, "EPHEMERIS_TYPE": 0, "CLASSIFICATION_TYPE": "U", "NORAD_CAT_ID": 30946, "ELEMENT_SET_NO": 999, "REV_AT_EPOCH": 98475, "BSTAR": 0.00055261504, "MEAN_MOTION_DOT": 2.114e-05, "MEAN_MOTION_DDOT": 0}, "tle": {"line1": "1 30946U 99025BAL 25355.29158846  .00002114  00000+0  55262-3 0  9990", "line2": "2 30946  99.0397 111.0737 0089592 167.5285 222.4987 14.48192935984751"}}, "geometry": {"type": "Point", "coordinates": [-124.96679765365973, -79.4021801644581]}}, {"type": "Feature", "properties": {"norad_id": 30947, "name": "FENGYUN 1C DEB", "group": "fengyun-1c-debris", "lat": -49.706626585445235, "lon": -102.14491572144107, "alt_km": 775.5355966317866, "timestamp": "2025-12-23T09:49:07.363006+00:00", "meta": {"OBJECT_NAME": "FENGYUN 1C DEB", "OBJECT_ID": "1999-025BAM", "EPOCH": "2025-12-22T10:40:36.901920", "MEAN_MOTION": 14.38057514, "ECCENTRICITY": 0.00958225, "INCLINATION": 98.8088, "RA_OF_ASC_NODE": 246.3285, "ARG_OF_PERICENTER": 218.7122, "MEAN_ANOMALY": 140.7171, "EPHEMERIS_TYPE": 0, "CLASSIFICATION_TYPE": "U", "NORAD_CAT_ID": 30947, "ELEMENT_SET_NO": 999, "REV_AT_EPOCH": 98632, "BSTAR": 0.00024090871, "MEAN_MOTION_DOT": 7.2e-06, "MEAN_MOTION_DDOT": 0}, "tle": {"line1": "1 30947U 99025BAM 25356.44487155  .00000720  00000+0  24091-3 0  9994", "line2": "2 30947  98.8088 246.3285 0095822 218.7122 140.7171 14.38057514986322"}}, "geometry": {"type": "Point", "coordinates": [-102.14491572144107, -49.706626585445235]}}, {"type": "Feature", "properties": {"norad_id": 30949, "name": "FENGYUN 1C DEB", "group": "fengyun-1c-debris", "lat": 36.22307898497389, "lon": -14.961487388061833, "alt_km": 881.0553681397314, "timestamp": "2025-12-23T09:49:07.363018+00:00", "meta": {"OBJECT_NAME": "FENGYUN 1C DEB", "OBJECT_ID": "1999-025BAP", "EPOCH": "2025-12-22T06:32:20.994144", "MEAN_MOTION": 14.14058038, "ECCENTRICITY": 0.01161042, "INCLINATION": 98.6981, "RA_OF_ASC_NODE": 350.3705, "ARG_OF_PERICENTER": 282.4266, "MEAN_ANOMALY": 90.2041, "EPHEMERIS_TYPE": 0, "CLASSIFICATION_TYPE": "U", "NORAD_CAT_ID": 30949, "ELEMENT_SET_NO": 999, "REV_AT_EPOCH": 96651, "BSTAR": 0.00022736804, "MEAN_MOTION_DOT": 4.17e-06, "MEAN_MOTION_DDOT": 0}, "tle": {"line1": "1 30949U 99025BAP 25356.27246521  .00000417  00000+0  22737-3 0  9995", "line2": "2 30949  98.6981 350.3705 0116104 282.4266  90.2041 14.14058038966511"}}, "geometry": {"type": "Point", "coordinates": [-14.961487388061833, 36.22307898497389]}}, {"type": "Feature", "properties": {"norad_id": 30954, "name": "FENGYUN 1C DEB", "group": "fengyun-1c-debris", "lat": 66.022392442207, "lon": -62.557521021252995, "alt_km": 769.1540986730924, "timestamp": "2025-12-23T09:49:07.363028+00:00", "meta": {"OBJECT_NAME": "FENGYUN 1C DEB", "OBJECT_ID": "1999-025BAU", "EPOCH": "2025-12-22T13:01:42.043872", "MEAN_MOTION": 14.14974753, "ECCENTRICITY": 0.01289155, "INCLINATION": 98.7123, "RA_OF_ASC_NODE": 96.429, "ARG_OF_PERICENTER": 159.5585, "MEAN_ANOMALY": 223.6503, "EPHEMERIS_TYPE": 0, "CLASSIFICATION_TYPE": "U", "NORAD_CAT_ID": 30954, "ELEMENT_SET_NO": 999, "REV_AT_EPOCH": 96526, "BSTAR": 0.00095894165, "MEAN_MOTION_DOT": 1.968e-05, "MEAN_MOTION_DDOT": 0}, "tle": {"line1": "1 30954U 99025BAU 25356.54284773  .00001968  00000+0  95894-3 0  9998", "line2": "2 30954  98.7123  96.4290 0128915 159.5585 223.6503 14.14974753965261"}}, "geometry": {"type": "Point", "coordinates": [-62.557521021252995, 66.022392442207]}}, {"type": "Feature", "properties": {"norad_id": 30956, "name": "FENGYUN 1C DEB", "group": "fengyun-1c-debris", "lat": 78.47156245700963, "lon": -17.884568336485316, "alt_km": 860.4592145735023, "timestamp": "2025-12-23T09:49:07.363038+00:00", "meta": {"OBJECT_NAME": "FENGYUN 1C DEB", "OBJECT_ID": "1999-025BAW", "EPOCH": "2025-12-21T01:31:57.988704", "MEAN_MOTION": 14.14235145, "ECCENTRICITY": 0.00491177, "INCLINATION": 98.7589, "RA_OF_ASC_NODE": 28.9167, "ARG_OF_PERICENTER": 318.7398, "MEAN_ANOMALY": 69.7504, "EPHEMERIS_TYPE": 0, "CLASSIFICATION_TYPE": "U", "NORAD_CAT_ID": 30956, "ELEMENT_SET_NO": 999, "REV_AT_EPOCH": 96425, "BSTAR": 0.00065219968, "MEAN_MOTION_DOT": 1.215e-05, "MEAN_MOTION_DDOT": 0}, "tle": {"line1": "1 30956U 99025BAW 25355.06386561  .00001215  00000+0  65220-3 0  9999", "line2": "2 30956  98.7589  28.9167 0049117 318.7398  69.7504 14.14235145964252"}}, "geometry": {"type": "Point", "coordinates": [-17.884568336485316, 78.47156245700963]}}]}